NORAD_CAT_ID,OBJECT_NAME,OBJECT_TYPE,EPOCH,MEAN_MOTION,ECCENTRICITY,INCLINATION,RA_OF_ASC_NODE,ARG_OF_PERICENTER,MEAN_ANOMALY,BSTAR,MEAN_MOTION_DOT,MEAN_MOTION_DDOT,TLE_LINE0,TLE_LINE1,TLE_LINE2,SEMIMAJOR_AXIS,PERIOD,APOGEE,PERIGEE,DECAYED
54052.0,STARLINK-5189,PAYLOAD,2024-07-29 21:56:54,15.08844742,0.000147,53.217,62.5617,86.0027,274.1133,0.00021907,3.201e-05,0.0,0 STARLINK-5189,1 54052U 22136B   24211.91452521  .00003201  00000-0  21907-3 0  9997,2 54052  53.2170  62.5617 0001470  86.0027 274.1133 15.08844742 98672,6917.866,95.437,540.748,538.714,0.0
54052.0,STARLINK-5189,PAYLOAD,2024-07-30 07:29:14,15.08839915,0.0001443,53.2164,60.7761,97.8986,262.217,0.000115,1.543e-05,0.0,0 STARLINK-5189,1 54052U 22136B   24212.31197020  .00001543  00000-0  11500-3 0  9997,2 54052  53.2164  60.7761 0001443  97.8986 262.2170 15.08839915 99226,6917.881,95.438,540.744,538.747,0.0
54052.0,STARLINK-5189,PAYLOAD,2024-07-30 20:12:19,15.0884663,0.0001636,53.2183,58.3973,82.9592,277.1586,1.1936e-05,-9.8e-07,0.0,0 STARLINK-5189,1 54052U 22136B   24212.84188975 -.00000098  00000-0  11936-4 0  9993,2 54052  53.2183  58.3973 0001636  82.9592 277.1586 15.08846630 98819,6917.86,95.437,540.857,538.593,0.0
54052.0,STARLINK-5189,PAYLOAD,2024-07-31 07:20:01,15.08839677,0.000152,53.2178,56.3173,86.586,273.5306,-1.0818e-05,-4.6e-06,0.0,0 STARLINK-5189,1 54052U 22136B   24213.30557366 -.00000460  00000-0 -10818-4 0  9991,2 54052  53.2178  56.3173 0001520  86.5860 273.5306 15.08839677 98883,6917.881,95.438,540.798,538.695,0.0
54052.0,STARLINK-5189,PAYLOAD,2024-07-31 20:03:06,15.08840814,0.000144,53.218,53.9364,98.8027,261.3129,-5.9424e-05,-1.234e-05,0.0,0 STARLINK-5189,1 54052U 22136B   24213.83549400 -.00001234  00000-0 -59424-4 0  9995,2 54052  53.2180  53.9364 0001440  98.8027 261.3129 15.08840814 99450,6917.878,95.438,540.739,538.747,0.0
54052.0,STARLINK-5189,PAYLOAD,2024-08-01 13:32:20,15.0884111,0.0001437,53.2189,50.6624,115.4701,244.644,8.8475e-05,1.12e-05,0.0,0 STARLINK-5189,1 54052U 22136B   24214.56412836  .00001120  00000-0  88475-4 0  9998,2 54052  53.2189  50.6624 0001437 115.4701 244.6440 15.08841110 99071,6917.877,95.437,540.736,538.748,0.0
54052.0,STARLINK-5189,PAYLOAD,2024-08-01 19:53:52,15.08847648,0.0001312,53.2184,49.477,105.4035,254.7102,0.00015277,2.145e-05,0.0,0 STARLINK-5189,1 54052U 22136B   24214.82908293  .00002145  00000-0  15277-3 0  9991,2 54052  53.2184  49.4770 0001312 105.4035 254.7102 15.08847648 99603,6917.857,95.437,540.63,538.814,0.0
54052.0,STARLINK-5189,PAYLOAD,2024-08-02 13:23:09,15.08821393,0.0001353,53.218,46.2074,101.8557,258.2587,-4.0941e-05,-9.39e-06,0.0,0 STARLINK-5189,1 54052U 22136B   24215.55774761 -.00000939  00000-0 -40941-4 0  9991,2 54052  53.2180  46.2074 0001353 101.8557 258.2587 15.08821393 99712,6917.937,95.439,540.738,538.866,0.0
54052.0,STARLINK-5189,PAYLOAD,2024-08-02 19:44:41,15.08827516,0.000144,53.2188,45.0201,109.7564,250.3584,4.5605e-06,-2.15e-06,0.0,0 STARLINK-5189,1 54052U 22136B   24215.82270601 -.00000215  00000-0  45605-5 0  9994,2 54052  53.2188  45.0201 0001440 109.7564 250.3584 15.08827516 99264,6917.919,95.438,540.78,538.787,0.0
54052.0,STARLINK-5189,PAYLOAD,2024-08-03 05:16:59,15.08839297,0.0001395,53.2181,43.2342,104.4595,255.6552,8.8202e-05,1.116e-05,0.0,0 STARLINK-5189,1 54052U 22136B   24216.22013693  .00001116  00000-0  88202-4 0  9994,2 54052  53.2181  43.2342 0001395 104.4595 255.6552 15.08839297 99811,6917.883,95.438,540.713,538.782,0.0
54052.0,STARLINK-5189,PAYLOAD,2024-08-03 13:13:54,15.08853716,0.0001341,53.2175,41.7457,106.9283,253.1856,0.00023255,3.416e-05,0.0,0 STARLINK-5189,1 54052U 22136B   24216.55132952  .00003416  00000-0  23255-3 0  9991,2 54052  53.2175  41.7457 0001341 106.9283 253.1856 15.08853716 99863,6917.838,95.437,540.631,538.776,0.0
54052.0,STARLINK-5189,PAYLOAD,2024-08-03 19:35:27,15.08864324,9.87e-05,53.2161,40.557,91.2654,268.8451,0.00069552,0.00010806,0.0,0 STARLINK-5189,1 54052U 22136B   24216.81628781  .00010806  00000-0  69552-3 0  9991,2 54052  53.2161  40.5570 0000987  91.2654 268.8451 15.08864324 99416,6917.806,95.436,540.354,538.988,0.0
54052.0,STARLINK-5189,PAYLOAD,2024-08-04 05:07:46,15.08852184,0.0001205,53.2167,38.7717,89.0518,271.0612,0.00035421,5.356e-05,0.0,0 STARLINK-5189,1 54052U 22136B   24217.21373038  .00005356  00000-0  35421-3 0  9990,2 54052  53.2167  38.7717 0001205  89.0518 271.0612 15.08852184 99968,6917.843,95.437,540.542,538.875,0.0
54052.0,STARLINK-5189,PAYLOAD,2024-08-04 21:01:37,15.08875233,0.0001219,53.2167,35.7987,97.6066,262.5065,0.0011425,0.00017959,0.0,0 STARLINK-5189,1 54052U 22136B   24217.87612596  .00017959  00000-0  11425-2 0  9996,2 54052  53.2167  35.7987 0001219  97.6066 262.5065 15.08875233 99576,6917.773,95.435,540.481,538.794,0.0
54052.0,STARLINK-5189,PAYLOAD,2024-08-05 04:58:33,15.0884972,0.0001052,53.2162,34.3111,94.514,265.5973,0.00088374,0.00013808,0.0,0 STARLINK-5189,1 54052U 22136B   24218.20733108  .00013808  00000-0  88374-3 0  9994,2 54052  53.2162  34.3111 0001052  94.5140 265.5973 15.08849720100115,6917.851,95.437,540.443,538.988,0.0
54052.0,STARLINK-5189,PAYLOAD,2024-08-05 19:17:01,15.08851812,0.0001235,53.2167,31.6351,94.3512,265.7621,0.00073474,0.00011429,0.0,0 STARLINK-5189,1 54052U 22136B   24218.80349088  .00011429  00000-0  73474-3 0  9992,2 54052  53.2167  31.6351 0001235  94.3512 265.7621 15.08851812100207,6917.844,95.437,540.564,538.855,0.0
54052.0,STARLINK-5189,PAYLOAD,2024-08-06 04:49:20,15.08840541,0.0001431,53.2165,29.8506,78.2461,281.8692,0.00033117,4.987e-05,0.0,0 STARLINK-5189,1 54052U 22136B   24219.20093485  .00004987  00000-0  33117-3 0  9995,2 54052  53.2165  29.8506 0001431  78.2461 281.8692 15.08840541100268,6917.879,95.438,540.734,538.754,0.0
54052.0,STARLINK-5189,PAYLOAD,2024-08-06 17:32:26,15.08833342,0.0001437,53.2171,27.4717,86.7591,273.3566,0.00019421,2.804e-05,0.0,0 STARLINK-5189,1 54052U 22136B   24219.73085955  .00002804  00000-0  19421-3 0  9994,2 54052  53.2171  27.4717 0001437  86.7591 273.3566 15.08833342100343,6917.901,95.438,540.76,538.772,0.0
54052.0,STARLINK-5189,PAYLOAD,2024-08-07 17:23:13,15.08854411,0.0001308,53.2165,23.0126,65.533,294.5799,0.00092312,0.0001444,0.0,0 STARLINK-5189,1 54052U 22136B   24220.72445980  .00014440  00000-0  92312-3 0  9992,2 54052  53.2165  23.0126 0001308  65.5330 294.5799 15.08854411100494,6917.836,95.437,540.606,538.796,0.0
54052.0,STARLINK-5189,PAYLOAD,2024-08-08 14:03:14,15.08849169,9.18e-05,53.217,19.146,64.3163,295.7924,0.00054128,8.339e-05,0.0,0 STARLINK-5189,1 54052U 22136B   24221.58557978  .00008339  00000-0  54128-3 0  9991,2 54052  53.2170  19.1460 0000918  64.3163 295.7924 15.08849169100132,6917.852,95.437,540.352,539.082,0.0
54052.0,STARLINK-5189,PAYLOAD,2024-08-08 20:24:46,15.08853425,0.000138,53.2171,17.9545,75.45,284.6645,0.00067119,0.00010414,0.0,0 STARLINK-5189,1 54052U 22136B   24221.85053843  .00010414  00000-0  67119-3 0  9994,2 54052  53.2171  17.9545 0001380  75.4500 284.6645 15.08853425100660,6917.839,95.437,540.659,538.75,0.0
54052.0,STARLINK-5189,PAYLOAD,2024-08-09 10:43:15,15.08837206,0.0001231,53.2186,15.2689,102.5966,257.5163,0.00015832,2.233e-05,0.0,0 STARLINK-5189,1 54052U 22136B   24222.44670142  .00002233  00000-0  15832-3 0  9992,2 54052  53.2186  15.2689 0001231 102.5966 257.5163 15.08837206100752,6917.889,95.438,540.606,538.902,0.0
54052.0,STARLINK-5189,PAYLOAD,2024-08-09 13:54:01,15.08840049,0.0001438,53.2177,14.6764,90.4194,269.6963,0.00018392,2.64e-05,0.0,0 STARLINK-5189,1 54052U 22136B   24222.57918234  .00002640  00000-0  18392-3 0  9999,2 54052  53.2177  14.6764 0001438  90.4194 269.6963 15.08840049100285,6917.88,95.438,540.74,538.75,0.0
54052.0,STARLINK-5189,PAYLOAD,2024-08-09 17:04:47,15.08836493,0.0001276,53.2182,14.0905,79.6181,280.4955,0.00030548,4.577e-05,0.0,0 STARLINK-5189,1 54052U 22136B   24222.71166508  .00004577  00000-0  30548-3 0  9992,2 54052  53.2182  14.0905 0001276  79.6181 280.4955 15.08836493100300,6917.891,95.438,540.639,538.873,0.0
54052.0,STARLINK-5189,PAYLOAD,2024-08-10 13:44:48,15.0885904,0.0001382,53.2193,10.2264,86.5257,273.5893,0.00094065,0.00014722,0.0,0 STARLINK-5189,1 54052U 22136B   24223.57278260  .00014722  00000-0  94065-3 0  9993,2 54052  53.2193  10.2264 0001382  86.5257 273.5893 15.08859040100438,6917.822,95.436,540.643,538.731,0.0
54052.0,STARLINK-5189,PAYLOAD,2024-08-10 16:55:34,15.08874091,0.0001412,53.2188,9.629,91.7139,268.4015,0.0018751,0.00029708,0.0,0 STARLINK-5189,1 54052U 22136B   24223.70525977  .00029708  00000-0  18751-2 0  9995,2 54052  53.2188   9.6290 0001412  91.7139 268.4015 15.08874091100942,6917.776,95.435,540.618,538.664,0.0
54052.0,STARLINK-5189,PAYLOAD,2024-08-11 02:27:52,15.08883268,0.000147,53.2183,7.8461,60.1979,299.916,0.0012301,0.00019366,0.0,0 STARLINK-5189,1 54052U 22136B   24224.10269272  .00019366  00000-0  12301-2 0  9997,2 54052  53.2183   7.8461 0001470  60.1979 299.9160 15.08883268101007,6917.748,95.435,540.63,538.596,0.0
54052.0,STARLINK-5189,PAYLOAD,2024-08-11 10:24:48,15.08830948,0.0001666,53.2189,6.3618,89.0131,271.1052,-0.00067065,-0.00010943,0.0,0 STARLINK-5189,1 54052U 22136B   24224.43389903 -.00010943  00000-0 -67065-3 0  9999,2 54052  53.2189   6.3618 0001666  89.0131 271.1052 15.08830948101052,6917.908,95.438,540.926,538.621,0.0
54052.0,STARLINK-5189,PAYLOAD,2024-08-11 16:46:21,15.08848196,0.0001057,53.2186,5.1707,59.2934,300.8162,0.00035912,5.433e-05,0.0,0 STARLINK-5189,1 54052U 22136B   24224.69885713  .00005433  00000-0  35912-3 0  9999,2 54052  53.2186   5.1707 0001057  59.2934 300.8162 15.08848196101099,6917.855,95.437,540.452,538.989,0.0
54052.0,STARLINK-5189,PAYLOAD,2024-08-12 10:15:35,15.08840236,0.0001504,53.2176,1.9028,93.9097,266.2067,0.00037594,5.7e-05,0.0,0 STARLINK-5189,1 54052U 22136B   24225.42749989  .00005700  00000-0  37594-3 0  9990,2 54052  53.2176   1.9028 0001504  93.9097 266.2067 15.08840236101209,6917.88,95.438,540.785,538.704,0.0
